NORAD_CAT_ID,OBJECT_NAME,OBJECT_TYPE,EPOCH,MEAN_MOTION,ECCENTRICITY,INCLINATION,RA_OF_ASC_NODE,ARG_OF_PERICENTER,MEAN_ANOMALY,BSTAR,MEAN_MOTION_DOT,MEAN_MOTION_DDOT,TLE_LINE0,TLE_LINE1,TLE_LINE2,SEMIMAJOR_AXIS,PERIOD,APOGEE,PERIGEE,DECAYED
51804.0,STARLINK-3601,PAYLOAD,2022-09-20 18:34:31,15.08842915,0.0001551,53.2179,252.034,67.8556,292.26,0.00010487,1.382e-05,0.0,0 STARLINK-3601,1 51804U 22017AN  22263.77398034  .00001382  00000-0  10487-3 0  9993,2 51804  53.2179 252.0340 0001551  67.8556 292.2600 15.08842915 33147,6917.871,95.437,540.809,538.664,0.0
51804.0,STARLINK-3601,PAYLOAD,2022-09-20 20:09:54,15.08844671,0.000151,53.2179,251.7364,69.6683,290.4472,0.00012491,1.701e-05,0.0,0 STARLINK-3601,1 51804U 22017AN  22263.84021842  .00001701  00000-0  12491-3 0  9993,2 51804  53.2179 251.7364 0001510  69.6683 290.4472 15.08844671 33053,6917.866,95.437,540.776,538.687,0.0
51804.0,STARLINK-3601,PAYLOAD,2022-09-21 18:25:19,15.08837695,0.000153,53.2181,247.5736,69.866,290.2497,-4.0815e-05,-9.37e-06,0.0,0 STARLINK-3601,1 51804U 22017AN  22264.76758599 -.00000937  00000-0 -40815-4 0  9995,2 51804  53.2181 247.5736 0001530  69.8660 290.2497 15.08837695 33290,6917.887,95.438,540.811,538.694,0.0
51804.0,STARLINK-3601,PAYLOAD,2022-09-23 03:48:25,15.08840429,0.0001373,53.2181,241.3288,69.4946,290.6193,8.4217e-06,-1.54e-06,0.0,0 STARLINK-3601,1 51804U 22017AN  22266.15862406 -.00000154  00000-0  84217-5 0  9998,2 51804  53.2181 241.3288 0001373  69.4946 290.6193 15.08840429 33502,6917.879,95.438,540.694,538.794,0.0
51804.0,STARLINK-3601,PAYLOAD,2022-09-23 10:09:57,15.08854064,0.0001318,53.2182,240.1402,69.7035,290.4099,-0.00013408,-2.422e-05,0.0,0 STARLINK-3601,1 51804U 22017AN  22266.42357715 -.00002422  00000-0 -13408-3 0  9993,2 51804  53.2182 240.1402 0001318  69.7035 290.4099 15.08854064 33546,6917.837,95.437,540.614,538.7909999999998,0.0
51804.0,STARLINK-3601,PAYLOAD,2022-09-23 13:20:43,15.08842293,0.0001325,53.2181,239.5451,67.1245,292.9887,9.7535e-05,1.265e-05,0.0,0 STARLINK-3601,1 51804U 22017AN  22266.55606187  .00001265  00000-0  97535-4 0  9993,2 51804  53.2181 239.5451 0001325  67.1245 292.9887 15.08842293 33468,6917.873000000001,95.437,540.655,538.822,0.0
51804.0,STARLINK-3601,PAYLOAD,2022-09-23 14:56:06,15.08843872,0.0001325,53.218,239.2478,67.4912,292.622,0.00010915,1.4499999999999992e-05,0.0,0 STARLINK-3601,1 51804U 22017AN  22266.62230061  .00001450  00000-0  10915-3 0  9997,2 51804  53.2180 239.2478 0001325  67.4912 292.6220 15.08843872 33571,6917.869000000002,95.437,540.65,538.817,0.0
51804.0,STARLINK-3601,PAYLOAD,2022-09-23 19:42:16,15.08834544,0.0001369,53.2181,238.3557,78.1676,281.9469,2.5915e-05,1.24e-06,0.0,0 STARLINK-3601,1 51804U 22017AN  22266.82102912  .00000124  00000-0  25915-4 0  9996,2 51804  53.2181 238.3557 0001369  78.1676 281.9469 15.08834544 33509,6917.897,95.438,540.7090000000002,538.815,0.0
51804.0,STARLINK-3601,PAYLOAD,2022-09-24 02:03:49,15.08835171,0.0001383,53.2181,237.1663,70.0365,290.0776,3.427e-05,2.57e-06,0.0,0 STARLINK-3601,1 51804U 22017AN  22267.08599017  .00000257  00000-0  34270-4 0  9992,2 51804  53.2181 237.1663 0001383  70.0365 290.0776 15.08835171 33640,6917.895,95.438,540.717,538.803,0.0
51804.0,STARLINK-3601,PAYLOAD,2022-09-24 10:00:44,15.08838991,0.0001431,53.2171,235.6794,69.4648,290.6498,0.0001445,2.012e-05,0.0,0 STARLINK-3601,1 51804U 22017AN  22267.41718663  .00002012  00000-0  14450-3 0  9997,2 51804  53.2171 235.6794 0001431  69.4648 290.6498 15.08838991 33591,6917.8830000000025,95.438,540.738,538.759,0.0
51804.0,STARLINK-3601,PAYLOAD,2022-09-24 17:57:40,15.08847001,0.0001433,53.2172,234.1926,69.6998,290.4148,0.00026385,3.915e-05,0.0,0 STARLINK-3601,1 51804U 22017AN  22267.74838391  .00003915  00000-0  26385-3 0  9997,2 51804  53.2172 234.1926 0001433  69.6998 290.4148 15.08847001 33744,6917.859,95.437,540.715,538.7330000000002,0.0
51804.0,STARLINK-3601,PAYLOAD,2022-09-24 19:33:03,15.08848686,0.0001440999999999,53.217,233.895,69.748,290.3667,0.00032234,4.847e-05,0.0,0 STARLINK-3601,1 51804U 22017AN  22267.81462362  .00004847  00000-0  32234-3 0  9991,2 51804  53.2170 233.8950 0001441  69.7480 290.3667 15.08848686 33656,6917.854,95.437,540.716,538.722,0.0
51804.0,STARLINK-3601,PAYLOAD,2022-09-25 09:51:31,15.08846393,0.0001501999999999,53.2168,231.2188,75.9967,284.1192,0.00016005,2.261e-05,0.0,0 STARLINK-3601,1 51804U 22017AN  22268.41078266  .00002261  00000-0  16005-3 0  9990,2 51804  53.2168 231.2188 0001502  75.9967 284.1192 15.08846393 33742,6917.861,95.437,540.765,538.687,0.0
51804.0,STARLINK-3601,PAYLOAD,2022-09-25 17:48:27,15.08847526,0.000153,53.2168,229.732,76.6027,283.5136,0.00024948,3.686e-05,0.0,0 STARLINK-3601,1 51804U 22017AN  22268.74198189  .00003686  00000-0  24948-3 0  9990,2 51804  53.2168 229.7320 0001530  76.6027 283.5136 15.08847526 33894,6917.857,95.437,540.781,538.664,0.0
51804.0,STARLINK-3601,PAYLOAD,2022-09-25 19:23:50,15.08842987,0.0001520999999999,53.2168,229.4347,77.3432,282.773,9.9656e-05,1.299e-05,0.0,0 STARLINK-3601,1 51804U 22017AN  22268.80822283  .00001299  00000-0  99656-4 0  9993,2 51804  53.2168 229.4347 0001521  77.3432 282.7730 15.08842987 33806,6917.871,95.437,540.788,538.684,0.0
51804.0,STARLINK-3601,PAYLOAD,2022-09-26 03:20:46,15.08834931,0.0001543,53.2172,227.9479,72.5338,287.5823,5.919e-06,-1.94e-06,0.0,0 STARLINK-3601,1 51804U 22017AN  22269.13942852 -.00000194  00000-0  59190-5 0  9999,2 51804  53.2172 227.9479 0001543  72.5338 287.5823 15.08834931 33958,6917.896,95.438,540.828,538.693,0.0
51804.0,STARLINK-3601,PAYLOAD,2022-09-26 09:42:19,15.08838692,0.0001482,53.2171,226.7584,75.4251,284.6905,6.6673e-05,7.73e-06,0.0,0 STARLINK-3601,1 51804U 22017AN  22269.40438714  .00000773  00000-0  66673-4 0  9991,2 51804  53.2171 226.7584 0001482  75.4251 284.6905 15.08838692 33899,6917.884,95.438,540.775,538.724,0.0
51804.0,STARLINK-3601,PAYLOAD,2022-09-26 20:50:01,15.08830474,0.0001511,53.2172,224.6769,74.4118,285.7041,-4.4761e-05,-1e-05,0.0,0 STARLINK-3601,1 51804U 22017AN  22269.86807177 -.00001000  00000-0 -44761-4 0  9994,2 51804  53.2172 224.6769 0001511  74.4118 285.7041 15.08830474 33967,6917.91,95.438,540.82,538.729,0.0
51804.0,STARLINK-3601,PAYLOAD,2022-09-27 07:57:43,15.08838578,0.000151,53.2177,222.5957,73.1761,286.9397,2.7149e-05,1.44e-06,0.0,0 STARLINK-3601,1 51804U 22017AN  22270.33175249  .00000144  00000-0  27149-4 0  9993,2 51804  53.2177 222.5957 0001510  73.1761 286.9397 15.08838578 34137,6917.885,95.438,540.794,538.705,0.0
51804.0,STARLINK-3601,PAYLOAD,2022-09-27 09:33:06,15.08838558,0.0001508,53.2176,222.2983,72.7041,287.4116,2.7839e-05,1.55e-06,0.0,0 STARLINK-3601,1 51804U 22017AN  22270.39799269  .00000155  00000-0  27839-4 0  9991,2 51804  53.2176 222.2983 0001508  72.7041 287.4116 15.08838558 34048,6917.885,95.438,540.793,538.707,0.0
51804.0,STARLINK-3601,PAYLOAD,2022-09-27 20:40:48,15.08850309,0.0001503,53.2177,220.2168,72.7157,287.4,0.00032042,4.817e-05,0.0,0 STARLINK-3601,1 51804U 22017AN  22270.86166835  .00004817  00000-0  32042-3 0  9990,2 51804  53.2177 220.2168 0001503  72.7157 287.4000 15.08850309 34113,6917.849,95.437,540.754,538.674,0.0
51804.0,STARLINK-3601,PAYLOAD,2022-09-28 10:59:16,15.08843631,0.000143,53.2176,217.5407,71.9086,288.2062,0.0002501999999999,3.697e-05,0.0,0 STARLINK-3601,1 51804U 22017AN  22271.45783287  .00003697  00000-0  25020-3 0  9995,2 51804  53.2176 217.5407 0001430  71.9086 288.2062 15.08843631 34306,6917.869000000002,95.437,540.724,538.745,0.0
51804.0,STARLINK-3601,PAYLOAD,2022-09-28 12:34:39,15.08843335,0.0001426999999999,53.2177,217.2434,71.7149,288.3998,0.00022909,3.3600000000000004e-05,0.0,0 STARLINK-3601,1 51804U 22017AN  22271.52407274  .00003360  00000-0  22909-3 0  9992,2 51804  53.2177 217.2434 0001427  71.7149 288.3998 15.08843335 34218,6917.87,95.437,540.722,538.748,0.0
51804.0,STARLINK-3601,PAYLOAD,2022-09-28 18:56:12,15.08844793,0.0001425,53.2177,216.054,72.133,287.9817,0.00020517,2.979e-05,0.0,0 STARLINK-3601,1 51804U 22017AN  22271.78903180  .00002979  00000-0  20517-3 0  9995,2 51804  53.2177 216.0540 0001425  72.1330 287.9817 15.08844793 34256,6917.866,95.437,540.717,538.745,0.0
51804.0,STARLINK-3601,PAYLOAD,2022-09-29 01:17:45,15.088375,0.0001468,53.2178,214.8648,71.317,288.7982,6.5169e-05,7.49e-06,0.0,0 STARLINK-3601,1 51804U 22017AN  22272.05399514  .00000749  00000-0  65169-4 0  9992,2 51804  53.2178 214.8648 0001468  71.3170 288.7982 15.08837500 34397,6917.888000000001,95.438,540.769,538.737,0.0
51804.0,STARLINK-3601,PAYLOAD,2022-09-29 10:50:03,15.08849802,0.000147,53.2177,213.0806,71.9881,288.1271,0.00027525,4.097e-05,0.0,0 STARLINK-3601,1 51804U 22017AN  22272.45143073  .00004097  00000-0  27525-3 0  9996,2 51804  53.2177 213.0806 0001470  71.9881 288.1271 15.08849802 34451,6917.85,95.437,540.732,538.6990000000002,0.0
51804.0,STARLINK-3601,PAYLOAD,2022-09-29 20:22:22,15.08849609,0.0001389,53.2177,211.2963,76.7121,283.4026,0.00021948,3.208e-05,0.0,0 STARLINK-3601,1 51804U 22017AN  22272.84886920  .00003208  00000-0  21948-3 0  9990,2 51804  53.2177 211.2963 0001389  76.7121 283.4026 15.08849609 34411,6917.851,95.437,540.677,538.755,0.0
51804.0,STARLINK-3601,PAYLOAD,2022-09-30 02:43:54,15.08846022,0.0001443,53.2178,210.107,76.6453,283.47,0.00014831,2.074e-05,0.0,0 STARLINK-3601,1 51804U 22017AN  22273.11383012  .00002074  00000-0  14831-3 0  9998,2 51804  53.2178 210.1070 0001443  76.6453 283.4700 15.08846022 34557,6917.861999999999,95.437,540.725,538.729,0.0
51804.0,STARLINK-3601,PAYLOAD,2022-09-30 09:05:27,15.08853547,0.0001431,53.2178,208.9177,72.0003,288.1145,0.00027445,4.084e-05,0.0,0 STARLINK-3601,1 51804U 22017AN  22273.37878623  .00004084  00000-0  27445-3 0  9991,2 51804  53.2178 208.9177 0001431  72.0003 288.1145 15.08853547 34496,6917.839,95.437,540.694,538.714,0.0
